[{"OBJECT_NAME":"STARLINK-5750","OBJECT_ID":"2023-020AB","EPOCH":"2026-03-09T22:00:01.999584","MEAN_MOTION":15.1157446,"ECCENTRICITY":0.00010799,"INCLINATION":42.9996,"RA_OF_ASC_NODE":2.8154,"ARG_OF_PERICENTER":239.6654,"MEAN_ANOMALY":3.4658,"EPHEMERIS_TYPE":0,"CLASSIFICATION_TYPE":"U","NORAD_CAT_ID":55594,"ELEMENT_SET_NO":999,"REV_AT_EPOCH":577,"BSTAR":0.070030439,"MEAN_MOTION_DOT":0.01312742,"MEAN_MOTION_DDOT":0},{"OBJECT_NAME":"SHIJIAN-30A (SJ-30A)","OBJECT_ID":"2025-266A","EPOCH":"2026-03-09T22:15:16.108992","MEAN_MOTION":15.15342199,"ECCENTRICITY":0.00113033,"INCLINATION":51.7972,"RA_OF_ASC_NODE":284.3677,"ARG_OF_PERICENTER":291.808,"MEAN_ANOMALY":68.1693,"EPHEMERIS_TYPE":0,"CLASSIFICATION_TYPE":"U","NORAD_CAT_ID":66545,"ELEMENT_SET_NO":999,"REV_AT_EPOCH":1680,"BSTAR":0.00051940463,"MEAN_MOTION_DOT":9.633e-5,"MEAN_MOTION_DDOT":0}]
